HERMES-3                
1 63835U 25052BR  26068.93751242  .00020316  00000+0  69958-3 0  9995
2 63835  97.3987 324.6131 0007993 112.9583 247.2502 15.30039785 54863
STARLINK-34587          
1 64735U 25144M   26068.58524240 -.00004628  00000+0 -14419-3 0  9996
2 64735  53.1587 181.6896 0000693  74.6294 285.4784 15.30212261 39648
